CCSDS_OMM_VERS = 2.0
CREATION_DATE  = 
ORIGINATOR     = 

OBJECT_NAME    = STARLINK-36159
OBJECT_ID      = 2025-298E
CENTER_NAME    = EARTH
REF_FRAME      = TEME
TIME_SYSTEM    = UTC
MEAN_ELEMENT_THEORY = SGP/SGP4

EPOCH          = 2025-12-23T06:00:00.999648
MEAN_MOTION    = 15.88248521
ECCENTRICITY   = .00043823
INCLINATION    = 69.9966
RA_OF_ASC_NODE = 220.1475
ARG_OF_PERICENTER = 274.0376
MEAN_ANOMALY   = 143.1066

EPHEMERIS_TYPE = 0
CLASSIFICATION_TYPE = U
NORAD_CAT_ID   = 67079
ELEMENT_SET_NO = 999
REV_AT_EPOCH   = 266
BSTAR          = -.73026783E-2
MEAN_MOTION_DOT = -.1746757E-1
MEAN_MOTION_DDOT = 0

CCSDS_OMM_VERS = 2.0
CREATION_DATE  = 
ORIGINATOR     = 

OBJECT_NAME    = STARLINK-36158
OBJECT_ID      = 2025-298F
CENTER_NAME    = EARTH
REF_FRAME      = TEME
TIME_SYSTEM    = UTC
MEAN_ELEMENT_THEORY = SGP/SGP4

EPOCH          = 2025-12-23T06:00:00.999648
MEAN_MOTION    = 15.88247121
ECCENTRICITY   = .00042111
INCLINATION    = 69.9963
RA_OF_ASC_NODE = 220.1448
ARG_OF_PERICENTER = 273.4584
MEAN_ANOMALY   = 145.8769

EPHEMERIS_TYPE = 0
CLASSIFICATION_TYPE = U
NORAD_CAT_ID   = 67080
ELEMENT_SET_NO = 999
REV_AT_EPOCH   = 260
BSTAR          = -.73496307E-2
MEAN_MOTION_DOT = -.1756099E-1
MEAN_MOTION_DDOT = 0

CCSDS_OMM_VERS = 2.0
CREATION_DATE  = 
ORIGINATOR     = 

OBJECT_NAME    = STARLINK-35864
OBJECT_ID      = 2025-298G
CENTER_NAME    = EARTH
REF_FRAME      = TEME
TIME_SYSTEM    = UTC
MEAN_ELEMENT_THEORY = SGP/SGP4

EPOCH          = 2025-12-23T06:00:00.999648
MEAN_MOTION    = 15.88250015
ECCENTRICITY   = .00040472
INCLINATION    = 69.9965
RA_OF_ASC_NODE = 220.1423
ARG_OF_PERICENTER = 278.5166
MEAN_ANOMALY   = 142.7868

EPHEMERIS_TYPE = 0
CLASSIFICATION_TYPE = U
NORAD_CAT_ID   = 67081
ELEMENT_SET_NO = 999
REV_AT_EPOCH   = 266
BSTAR          = -.73609494E-2
MEAN_MOTION_DOT = -.175842E-1
MEAN_MOTION_DDOT = 0

CCSDS_OMM_VERS = 2.0
CREATION_DATE  = 
ORIGINATOR     = 

OBJECT_NAME    = STARLINK-36035
OBJECT_ID      = 2025-298H
CENTER_NAME    = EARTH
REF_FRAME      = TEME
TIME_SYSTEM    = UTC
MEAN_ELEMENT_THEORY = SGP/SGP4

EPOCH          = 2025-12-23T06:00:00.999648
MEAN_MOTION    = 15.88239300
ECCENTRICITY   = .00041145
INCLINATION    = 69.9965
RA_OF_ASC_NODE = 220.1398
ARG_OF_PERICENTER = 273.6984
MEAN_ANOMALY   = 149.7178

EPHEMERIS_TYPE = 0
CLASSIFICATION_TYPE = U
NORAD_CAT_ID   = 67082
ELEMENT_SET_NO = 999
REV_AT_EPOCH   = 266
BSTAR          = -.73669437E-2
MEAN_MOTION_DOT = -.1758933E-1
MEAN_MOTION_DDOT = 0

CCSDS_OMM_VERS = 2.0
CREATION_DATE  = 
ORIGINATOR     = 

OBJECT_NAME    = STARLINK-36170
OBJECT_ID      = 2025-298J
CENTER_NAME    = EARTH
REF_FRAME      = TEME
TIME_SYSTEM    = UTC
MEAN_ELEMENT_THEORY = SGP/SGP4

EPOCH          = 2025-12-23T06:00:00.999648
MEAN_MOTION    = 15.88234541
ECCENTRICITY   = .00040816
INCLINATION    = 69.9964
RA_OF_ASC_NODE = 220.1372
ARG_OF_PERICENTER = 273.8982
MEAN_ANOMALY   = 151.6720

EPHEMERIS_TYPE = 0
CLASSIFICATION_TYPE = U
NORAD_CAT_ID   = 67083
ELEMENT_SET_NO = 999
REV_AT_EPOCH   = 266
BSTAR          = -.73916431E-2
MEAN_MOTION_DOT = -.1763607E-1
MEAN_MOTION_DDOT = 0

CCSDS_OMM_VERS = 2.0
CREATION_DATE  = 
ORIGINATOR     = 

OBJECT_NAME    = STARLINK-36166
OBJECT_ID      = 2025-298K
CENTER_NAME    = EARTH
REF_FRAME      = TEME
TIME_SYSTEM    = UTC
MEAN_ELEMENT_THEORY = SGP/SGP4

EPOCH          = 2025-12-23T06:00:00.999648
MEAN_MOTION    = 15.88230539
ECCENTRICITY   = .00041226
INCLINATION    = 69.9964
RA_OF_ASC_NODE = 220.1347
ARG_OF_PERICENTER = 274.1558
MEAN_ANOMALY   = 153.4369

EPHEMERIS_TYPE = 0
CLASSIFICATION_TYPE = U
NORAD_CAT_ID   = 67084
ELEMENT_SET_NO = 999
REV_AT_EPOCH   = 260
BSTAR          = -.73894474E-2
MEAN_MOTION_DOT = -.1762908E-1
MEAN_MOTION_DDOT = 0

CCSDS_OMM_VERS = 2.0
CREATION_DATE  = 
ORIGINATOR     = 

OBJECT_NAME    = STARLINK-35794
OBJECT_ID      = 2025-298L
CENTER_NAME    = EARTH
REF_FRAME      = TEME
TIME_SYSTEM    = UTC
MEAN_ELEMENT_THEORY = SGP/SGP4

EPOCH          = 2025-12-23T06:00:00.999648
MEAN_MOTION    = 15.88225549
ECCENTRICITY   = .00042105
INCLINATION    = 69.9966
RA_OF_ASC_NODE = 220.1317
ARG_OF_PERICENTER = 273.7800
MEAN_ANOMALY   = 155.8018

EPHEMERIS_TYPE = 0
CLASSIFICATION_TYPE = U
NORAD_CAT_ID   = 67085
ELEMENT_SET_NO = 999
REV_AT_EPOCH   = 266
BSTAR          = -.73718158E-2
MEAN_MOTION_DOT = -.1759024E-1
MEAN_MOTION_DDOT = 0

CCSDS_OMM_VERS = 2.0
CREATION_DATE  = 
ORIGINATOR     = 

OBJECT_NAME    = STARLINK-35841
OBJECT_ID      = 2025-298M
CENTER_NAME    = EARTH
REF_FRAME      = TEME
TIME_SYSTEM    = UTC
MEAN_ELEMENT_THEORY = SGP/SGP4

EPOCH          = 2025-12-23T06:00:00.999648
MEAN_MOTION    = 15.88209344
ECCENTRICITY   = .00041034
INCLINATION    = 69.9962
RA_OF_ASC_NODE = 220.1295
ARG_OF_PERICENTER = 274.1469
MEAN_ANOMALY   = 157.6962

EPHEMERIS_TYPE = 0
CLASSIFICATION_TYPE = U
NORAD_CAT_ID   = 67086
ELEMENT_SET_NO = 999
REV_AT_EPOCH   = 266
BSTAR          = -.73385213E-2
MEAN_MOTION_DOT = -.1750781E-1
MEAN_MOTION_DDOT = 0

CCSDS_OMM_VERS = 2.0
CREATION_DATE  = 
ORIGINATOR     = 

OBJECT_NAME    = STARLINK-35842
OBJECT_ID      = 2025-298N
CENTER_NAME    = EARTH
REF_FRAME      = TEME
TIME_SYSTEM    = UTC
MEAN_ELEMENT_THEORY = SGP/SGP4

EPOCH          = 2025-12-23T06:00:00.999648
MEAN_MOTION    = 15.88212119
ECCENTRICITY   = .00041001
INCLINATION    = 69.9963
RA_OF_ASC_NODE = 220.1272
ARG_OF_PERICENTER = 274.6621
MEAN_ANOMALY   = 158.9644

EPHEMERIS_TYPE = 0
CLASSIFICATION_TYPE = U
NORAD_CAT_ID   = 67087
ELEMENT_SET_NO = 999
REV_AT_EPOCH   = 266
BSTAR          = -.73381327E-2
MEAN_MOTION_DOT = -.1750907E-1
MEAN_MOTION_DDOT = 0

CCSDS_OMM_VERS = 2.0
CREATION_DATE  = 
ORIGINATOR     = 

OBJECT_NAME    = STARLINK-35882
OBJECT_ID      = 2025-298P
CENTER_NAME    = EARTH
REF_FRAME      = TEME
TIME_SYSTEM    = UTC
MEAN_ELEMENT_THEORY = SGP/SGP4

EPOCH          = 2025-12-23T06:00:00.999648
MEAN_MOTION    = 15.88199045
ECCENTRICITY   = .00037515
INCLINATION    = 69.9964
RA_OF_ASC_NODE = 220.1247
ARG_OF_PERICENTER = 273.6256
MEAN_ANOMALY   = 162.1963

EPHEMERIS_TYPE = 0
CLASSIFICATION_TYPE = U
NORAD_CAT_ID   = 67088
ELEMENT_SET_NO = 999
REV_AT_EPOCH   = 266
BSTAR          = -.73276916E-2
MEAN_MOTION_DOT = -.174728E-1
MEAN_MOTION_DDOT = 0

CCSDS_OMM_VERS = 2.0
CREATION_DATE  = 
ORIGINATOR     = 

OBJECT_NAME    = STARLINK-35763
OBJECT_ID      = 2025-298Q
CENTER_NAME    = EARTH
REF_FRAME      = TEME
TIME_SYSTEM    = UTC
MEAN_ELEMENT_THEORY = SGP/SGP4

EPOCH          = 2025-12-23T06:00:00.999648
MEAN_MOTION    = 15.88192194
ECCENTRICITY   = .00039243
INCLINATION    = 69.9962
RA_OF_ASC_NODE = 220.1219
ARG_OF_PERICENTER = 275.5746
MEAN_ANOMALY   = 162.4683

EPHEMERIS_TYPE = 0
CLASSIFICATION_TYPE = U
NORAD_CAT_ID   = 67089
ELEMENT_SET_NO = 999
REV_AT_EPOCH   = 266
BSTAR          = -.73331507E-2
MEAN_MOTION_DOT = -.1748122E-1
MEAN_MOTION_DDOT = 0

CCSDS_OMM_VERS = 2.0
CREATION_DATE  = 
ORIGINATOR     = 

OBJECT_NAME    = STARLINK-36060
OBJECT_ID      = 2025-298R
CENTER_NAME    = EARTH
REF_FRAME      = TEME
TIME_SYSTEM    = UTC
MEAN_ELEMENT_THEORY = SGP/SGP4

EPOCH          = 2025-12-23T06:00:00.999648
MEAN_MOTION    = 15.88194252
ECCENTRICITY   = .00038792
INCLINATION    = 69.9958
RA_OF_ASC_NODE = 220.1197
ARG_OF_PERICENTER = 273.8355
MEAN_ANOMALY   = 166.0529

EPHEMERIS_TYPE = 0
CLASSIFICATION_TYPE = U
NORAD_CAT_ID   = 67090
ELEMENT_SET_NO = 999
REV_AT_EPOCH   = 260
BSTAR          = -.73277871E-2
MEAN_MOTION_DOT = -.1747112E-1
MEAN_MOTION_DDOT = 0

CCSDS_OMM_VERS = 2.0
CREATION_DATE  = 
ORIGINATOR     = 

OBJECT_NAME    = STARLINK-36097
OBJECT_ID      = 2025-298S
CENTER_NAME    = EARTH
REF_FRAME      = TEME
TIME_SYSTEM    = UTC
MEAN_ELEMENT_THEORY = SGP/SGP4

EPOCH          = 2025-12-23T06:00:00.999648
MEAN_MOTION    = 15.88182144
ECCENTRICITY   = .00037162
INCLINATION    = 69.9961
RA_OF_ASC_NODE = 220.1170
ARG_OF_PERICENTER = 274.0569
MEAN_ANOMALY   = 168.0184

EPHEMERIS_TYPE = 0
CLASSIFICATION_TYPE = U
NORAD_CAT_ID   = 67091
ELEMENT_SET_NO = 999
REV_AT_EPOCH   = 266
BSTAR          = -.73071268E-2
MEAN_MOTION_DOT = -.1741717E-1
MEAN_MOTION_DDOT = 0

CCSDS_OMM_VERS = 2.0
CREATION_DATE  = 
ORIGINATOR     = 

OBJECT_NAME    = STARLINK-35792
OBJECT_ID      = 2025-298T
CENTER_NAME    = EARTH
REF_FRAME      = TEME
TIME_SYSTEM    = UTC
MEAN_ELEMENT_THEORY = SGP/SGP4

EPOCH          = 2025-12-23T06:00:00.999648
MEAN_MOTION    = 15.88189436
ECCENTRICITY   = .00038418
INCLINATION    = 69.9959
RA_OF_ASC_NODE = 220.1148
ARG_OF_PERICENTER = 276.1461
MEAN_ANOMALY   = 167.7770

EPHEMERIS_TYPE = 0
CLASSIFICATION_TYPE = U
NORAD_CAT_ID   = 67092
ELEMENT_SET_NO = 999
REV_AT_EPOCH   = 260
BSTAR          = -.73351941E-2
MEAN_MOTION_DOT = -.174822E-1
MEAN_MOTION_DDOT = 0

CCSDS_OMM_VERS = 2.0
CREATION_DATE  = 
ORIGINATOR     = 

OBJECT_NAME    = STARLINK-35784
OBJECT_ID      = 2025-298U
CENTER_NAME    = EARTH
REF_FRAME      = TEME
TIME_SYSTEM    = UTC
MEAN_ELEMENT_THEORY = SGP/SGP4

EPOCH          = 2025-12-23T06:00:00.999648
MEAN_MOTION    = 15.88189978
ECCENTRICITY   = .00038778
INCLINATION    = 69.9958
RA_OF_ASC_NODE = 220.1121
ARG_OF_PERICENTER = 275.3296
MEAN_ANOMALY   = 170.5904

EPHEMERIS_TYPE = 0
CLASSIFICATION_TYPE = U
NORAD_CAT_ID   = 67093
ELEMENT_SET_NO = 999
REV_AT_EPOCH   = 266
BSTAR          = -.73532433E-2
MEAN_MOTION_DOT = -.1752025E-1
MEAN_MOTION_DDOT = 0

